{
  "norad_id": 64901,
  "name": "CO3D 4",
  "history": [
    {
      "epoch": "2026-03-28T03:50:18.287232",
      "apogee_km": 506.02966229107005,
      "perigee_km": 504.339393856636,
      "latitude_deg": 84.85035976157832,
      "longitude_deg": -34.546347520081326,
      "semi_major_axis_km": 6883.321528073852,
      "eccentricity": 0.00012278,
      "inclination_deg": 97.4324,
      "raan_deg": 167.0161,
      "arg_perigee_deg": 158.0019,
      "mean_anomaly_deg": 202.1269,
      "mean_motion_rev_day": 15.20217324
    }
  ]
}